ONEWEB-0346             
1 49212U 21083AC  23267.81199250  .00000067  00000+0  13783-3 0  9994
2 49212  87.9296 173.6135 0001340  80.3699 279.7584 13.18687576 99956
ONEWEB-0348             
1 49213U 21083AD  23268.29218334  .00000134  00000+0  29658-3 0  9996
2 49213  87.9155 112.7327 0000845  74.9663 285.1564 13.20772923106656
ONEWEB-0350             
1 49214U 21083AE  23268.40198300 -.00000011  00000+0 -64840-4 0  9999
2 49214  87.9007 158.3575 0001381  65.1989 294.9283 13.13468269101516
ONEWEB-0351             
1 49215U 21083AF  23267.60404915  .00000071  00000+0  14153-3 0  9998
2 49215  87.9165 112.8700 0002110  75.2591 284.8776 13.20770647106535
ONEWEB-0352             
1 49216U 21083AG  23268.23059000  .00000392  00000+0  10377-2 0  9999
2 49216  87.9065 158.3934 0002081  70.7405 289.3949 13.13473905101581
ONEWEB-0354             
1 49217U 21083AH  23268.08382734  .00000054  00000+0  10046-3 0  9995
2 49217  87.9157 112.7568 0001609  66.5359 293.5944 13.20773751106630
ONEWEB-0355             
1 49218U 21083AJ  23267.72908203 -.00000266  00000+0 -76397-3 0  9999
2 49218  87.9068 158.4926 0001879  67.5340 292.5988 13.13472226100093
ONEWEB-0357             
1 49219U 21083AK  23267.62509698  .00000019  00000+0  15331-4 0  9990
2 49219  87.9164 112.8673 0001610  78.3779 281.7535 13.20772147105268
